#aV2016  5 13  0  0  0.00000000     288 DD+AD WGS84 FIT  NGA
## 1896 432000.00000000   300.00000000 57521 0.0000000000000
+   31     1  2  3  5  6  7  8  9 10 11 12 13 14 15 16 17 18
+         19 20 21 22 23 24 25 26 27 28 29 30 31 32  0  0  0
+          0  0  0  0  0  0  0  0  0  0  0  0  0  0  0  0  0
+          0  0  0  0  0  0  0  0  0  0  0  0  0  0  0  0  0
+          0  0  0  0  0  0  0  0  0  0  0  0  0  0  0  0  0
++         2  2  2  2  2  2  2  2  2  2  2  2  2  2  2  2  2
++         2  2  2  2  2  2  2  2  2  2  2  2  2  2  0  0  0
++         0  0  0  0  0  0  0  0  0  0  0  0  0  0  0  0  0
++         0  0  0  0  0  0  0  0  0  0  0  0  0  0  0  0  0
++         0  0  0  0  0  0  0  0  0  0  0  0  0  0  0  0  0
%c cc cc ccc ccc cccc cccc cccc cccc ccccc ccccc ccccc ccccc
%c cc cc ccc ccc cccc cccc cccc cccc ccccc ccccc ccccc ccccc
%f  0.0000000  0.000000000  0.00000000000  0.000000000000000
%f  0.0000000  0.000000000  0.00000000000  0.000000000000000
%i    0    0    0    0      0      0      0      0         0
%i    0    0    0    0      0      0      0      0         0
/*      NGA, ST. LOUIS,MO.                                  
/*   EPHEMERIS COMPUTED FROM 2 DAYS OF DATA                 
/*   EPOCHA v2.4 SMOOTHER                                   
/*   G1762 IERS2010 SATAF SATAPC                            
*  2016  5 13  0 40  0.00000000
P  1  19429.387144   8927.995623  15827.373038     20.193672                    
V  1   9939.011104  17600.983227 -21791.620728      0.011978                    
P  2 -14358.334918 -22473.994542   2833.869031    592.171453                    
V  2   4218.037429    630.264345  30829.677802     -0.021644                    
P  3  16993.187713  -2746.859812  20235.503991    -57.092495                    
V  3 -10017.510265  23672.413223  11623.994878     -0.037981                    
P  5  -7460.241063 -16838.029323 -19135.101531   -121.349503                    
V  5  11563.313308 -21398.990846  14568.697439      0.030536                    
P  6  -2368.165947 -21727.909044  15103.235683    189.341261                    
V  6  12563.521929  14582.228612  22972.065462      0.055133                    
P  7  13183.112878  -7289.846608 -21749.521999    454.940079                    
V  7  15422.312908  23264.501671   1145.552360     -0.022247                    
P  8  22459.671116   6689.911230 -12484.426499    -34.900205                    
V  8 -15652.526656   3653.511223 -26054.924699     -0.014551                    
P  9  23966.867677  -8005.778174  -8223.555965    127.921490                    
V  9  10630.769807   1800.409233  29265.641978      0.073423                    
P 10 -10335.152951  24391.154888   1373.708283    -20.891992                    
V 10  -3373.676482    327.433453 -31701.815284     -0.090929                    
P 11  23720.454013   9488.790278   6779.698462   -646.643272                    
V 11   5203.080419   9094.617808 -28563.740312     -0.014379                    
P 12 -15256.334941  -1443.032296  21529.696515    379.482165                    
V 12  12591.957190 -24572.591632   7441.130125      0.012367                    
P 13 -15525.125174 -12508.611974 -17633.189175    -17.416402                    
V 13  22176.211683   -821.309573 -19168.204973     -0.026439                    
P 14  -6663.469347  14791.844937  21262.009775    -13.499187                    
V 14 -26421.918794   -544.875212  -8155.107453     -0.021054                    
P 15 -24563.815734  -3921.552724  -9906.508758   -310.617738                    
V 15  11791.698756  -4747.491278 -27359.762864     -0.016826                    
P 16   4999.536215  17237.402528 -19540.272939    -18.022862                    
V 16 -13002.206442  20967.709082  15626.564464      0.026151                    
P 17  11003.645362 -13946.888700  20014.041876   -203.677788                    
V 17  24729.569777     93.119383 -13938.345027     -0.001687                    
P 18 -15806.247623  18729.056979  -9366.977867    514.923932                    
V 18   1535.707801 -13289.543113 -27840.593009      0.041816                    
P 19    554.951312 -14817.639748  21797.741283   -525.694229                    
V 19  28216.125370    187.082022   -219.711243      0.000195                    
P 20 -16419.783103  -1160.022485 -21000.704049    411.838311                    
V 20   8638.606498 -25014.948255  -5365.203126      0.023670                    
P 21 -10751.100889  11210.826887 -20779.292154   -522.442767                    
V 21 -17169.681451 -22463.677582  -3369.870545     -0.013009                    
P 22  14245.140686   7680.551529  21297.091717    343.681443                    
V 22 -10847.574910  24343.978880  -1670.662578     -0.080777                    
P 23  26737.361002   -952.045580   1830.008117   -173.509975                    
V 23  -1822.167117   3036.838945  31033.385714     -0.016700                    
P 24 -20059.183329 -11562.345969  13127.238576    -16.941039                    
V 24  -7905.853976 -14923.398161 -24919.674778     -0.006328                    
P 25 -17461.601302  11556.138211  16099.568237   -170.285628                    
V 25   7337.812493 -19441.703906  21933.939361     -0.070589                    
P 26  -1926.857445  23720.099098 -11750.455929   -362.121988                    
V 26  -8468.394313  12532.587677  26745.599106     -0.125006                    
P 27  13260.414003  12257.344771 -19565.333312     91.864479                    
V 27 -24509.008256   3181.433730 -14474.948144      0.040259                    
P 28  12430.178120 -23434.587130   1178.355675    522.595319                    
V 28   2037.418417    319.740779 -32368.622046      0.026403                    
P 29 -25585.342802   4404.238263  -5475.600523    657.180420                    
V 29  -7021.833074  -2065.163582  31140.619046     -0.000218                    
P 30   6237.384417 -16768.410244 -19609.046658    124.728451                    
V 30  13956.756327  20709.942212 -13372.934673      0.031391                    
P 31   4084.252058  22674.335571  12990.198166    269.291827                    
V 31 -10802.996115 -12604.604879  25950.532623     -0.019125                    
P 32  -8535.669690  14967.578936  20216.188170     -5.231996                    
V 32 -25653.224542   1226.425238 -11754.357496     -0.056438                    
EOF
